start=new Date('2021-11-13T00:00:00.000Z').valueOf();
sats=[{"RCS_SIZE":"LARGE","MEAN_MOTION_DDOT":"0.0000000000000","PERIAPSIS":"543.740","EPHEMERIS_TYPE":"0","EPOCH":"2021-11-12T09:12:47.185344","ECCENTRICITY":"0.00049680","OBJECT_TYPE":"PAYLOAD","ELEMENT_SET_NO":"999","INCLINATION":"53.0529","SEMIMAJOR_AXIS":"6925.315","BSTAR":"0.00012884000000","GP_ID":"189592500","LAUNCH_DATE":"2020-04-22","PERIOD":"95.591","SITE":"AFETR","OBJECT_NAME":"STARLINK-1332","MEAN_MOTION_DOT":"0.00001638","COUNTRY_CODE":"US","REV_AT_EPOCH":"8818","TIME_SYSTEM":"UTC","CENTER_NAME":"EARTH","MEAN_MOTION":"15.06410874","TLE_LINE2":"2 45579  53.0529 281.9087 0004968  36.8071 323.3258 15.06410874 88180","APOAPSIS":"550.621","REF_FRAME":"TEME","RA_OF_ASC_NODE":"281.9087","MEAN_ELEMENT_THEORY":"SGP4","MEAN_ANOMALY":"323.3258","NORAD_CAT_ID":"45579","FILE":"3213417","OBJECT_ID":"2020-025BA","ARG_OF_PERICENTER":"36.8071","TLE_LINE1":"1 45579U 20025BA  21316.38387946  .00001638  00000-0  12884-3 0  9994","DECAY_DATE":null,"CLASSIFICATION_TYPE":"U"},{"MEAN_ELEMENT_THEORY":"SGP4","REF_FRAME":"TEME","RA_OF_ASC_NODE":"331.5451","APOAPSIS":"548.274","MEAN_MOTION":"15.06396021","TLE_LINE2":"2 45580  53.0547 331.5451 0001514  61.5013 298.6129 15.06396021 87495","CENTER_NAME":"EARTH","TIME_SYSTEM":"UTC","REV_AT_EPOCH":"8749","COUNTRY_CODE":"US","MEAN_MOTION_DOT":"-0.00002548","CLASSIFICATION_TYPE":"U","DECAY_DATE":null,"TLE_LINE1":"1 45580U 20025BB  21316.46499839 -.00002548  00000-0 -15226-3 0  9996","OBJECT_ID":"2020-025BB","ARG_OF_PERICENTER":"61.5013","FILE":"3213417","MEAN_ANOMALY":"298.6129","NORAD_CAT_ID":"45580","INCLINATION":"53.0547","SEMIMAJOR_AXIS":"6925.361","ELEMENT_SET_NO":"999","OBJECT_TYPE":"PAYLOAD","ECCENTRICITY":"0.00015140","EPOCH":"2021-11-12T11:09:35.860896","EPHEMERIS_TYPE":"0","PERIAPSIS":"546.177","MEAN_MOTION_DDOT":"0.0000000000000","RCS_SIZE":"LARGE","OBJECT_NAME":"STARLINK-1333","SITE":"AFETR","PERIOD":"95.592","GP_ID":"189591779","LAUNCH_DATE":"2020-04-22","BSTAR":"-0.00015226000000"},{"EPHEMERIS_TYPE":"0","EPOCH":"2021-11-12T17:38:23.148096","ECCENTRICITY":"0.00013540","RCS_SIZE":"LARGE","MEAN_MOTION_DDOT":"0.0000000000000","PERIAPSIS":"546.288","SEMIMAJOR_AXIS":"6925.360","INCLINATION":"53.0543","OBJECT_TYPE":"PAYLOAD","ELEMENT_SET_NO":"999","PERIOD":"95.592","GP_ID":"189644869","LAUNCH_DATE":"2020-04-22","SITE":"AFETR","BSTAR":"0.00004907400000","OBJECT_NAME":"STARLINK-1335","TIME_SYSTEM":"UTC","CENTER_NAME":"EARTH","MEAN_MOTION":"15.06396152","TLE_LINE2":"2 45581  53.0543 320.3368 0001354  76.6393 283.4746 15.06396152 87677","MEAN_MOTION_DOT":"0.00000450","COUNTRY_CODE":"US","REV_AT_EPOCH":"8767","MEAN_ELEMENT_THEORY":"SGP4","APOAPSIS":"548.163","REF_FRAME":"TEME","RA_OF_ASC_NODE":"320.3368","ARG_OF_PERICENTER":"76.6393","OBJECT_ID":"2020-025BC","TLE_LINE1":"1 45581U 20025BC  21316.73499014  .00000450  00000-0  49074-4 0  9999","NORAD_CAT_ID":"45581","MEAN_ANOMALY":"283.4746","FILE":"3213639","DECAY_DATE":null,"CLASSIFICATION_TYPE":"U"},{"CLASSIFICATION_TYPE":"U","DECAY_DATE":null,"FILE":"3213417","MEAN_ANOMALY":"275.1417","NORAD_CAT_ID":"45582","ARG_OF_PERICENTER":"84.9748","OBJECT_ID":"2020-025BD","TLE_LINE1":"1 45582U 20025BD  21316.42536398  .00001898  00000-0  14626-3 0  9994","REF_FRAME":"TEME","RA_OF_ASC_NODE":"321.7313","APOAPSIS":"548.264","MEAN_ELEMENT_THEORY":"SGP4","REV_AT_EPOCH":"8762","MEAN_MOTION_DOT":"0.00001898","COUNTRY_CODE":"US","CENTER_NAME":"EARTH","MEAN_MOTION":"15.06405461","TLE_LINE2":"2 45582  53.0535 321.7313 0001541  84.9748 275.1417 15.06405461 87620","TIME_SYSTEM":"UTC","OBJECT_NAME":"STARLINK-1337","BSTAR":"0.00014626000000","SITE":"AFETR","GP_ID":"189592775","PERIOD":"95.592","LAUNCH_DATE":"2020-04-22","OBJECT_TYPE":"PAYLOAD","ELEMENT_SET_NO":"999","SEMIMAJOR_AXIS":"6925.332","INCLINATION":"53.0535","PERIAPSIS":"546.130","RCS_SIZE":"LARGE","MEAN_MOTION_DDOT":"0.0000000000000","ECCENTRICITY":"0.00015410","EPHEMERIS_TYPE":"0","EPOCH":"2021-11-12T10:12:31.447872"},{"TIME_SYSTEM":"UTC","TLE_LINE2":"2 45583  53.0536 320.3170 0001478  71.8348 288.2802 15.06391198 87677","MEAN_MOTION":"15.06391198","CENTER_NAME":"EARTH","COUNTRY_CODE":"US","MEAN_MOTION_DOT":"0.00000384","REV_AT_EPOCH":"8767","MEAN_ELEMENT_THEORY":"SGP4","APOAPSIS":"548.264","REF_FRAME":"TEME","RA_OF_ASC_NODE":"320.3170","TLE_LINE1":"1 45583U 20025BE  21316.73868557  .00000384  00000-0  44685-4 0  9992","ARG_OF_PERICENTER":"71.8348","OBJECT_ID":"2020-025BE","NORAD_CAT_ID":"45583","MEAN_ANOMALY":"288.2802","FILE":"3213639","DECAY_DATE":null,"CLASSIFICATION_TYPE":"U","EPOCH":"2021-11-12T17:43:42.433248","EPHEMERIS_TYPE":"0","ECCENTRICITY":"0.00014780","MEAN_MOTION_DDOT":"0.0000000000000","RCS_SIZE":"LARGE","PERIAPSIS":"546.217","SEMIMAJOR_AXIS":"6925.376","INCLINATION":"53.0536","OBJECT_TYPE":"PAYLOAD","ELEMENT_SET_NO":"999","GP_ID":"189643885","LAUNCH_DATE":"2020-04-22","PERIOD":"95.593","SITE":"AFETR","BSTAR":"0.00004468500000","OBJECT_NAME":"STARLINK-1340"},{"APOAPSIS":"548.444","REF_FRAME":"TEME","RA_OF_ASC_NODE":"320.3621","MEAN_ELEMENT_THEORY":"SGP4","MEAN_MOTION_DOT":"0.00000603","COUNTRY_CODE":"US","REV_AT_EPOCH":"8767","TIME_SYSTEM":"UTC","CENTER_NAME":"EARTH","MEAN_MOTION":"15.06404456","TLE_LINE2":"2 45584  53.0541 320.3621 0001797  57.6248 302.4915 15.06404456 87676","DECAY_DATE":null,"CLASSIFICATION_TYPE":"U","MEAN_ANOMALY":"302.4915","NORAD_CAT_ID":"45584","FILE":"3213639","OBJECT_ID":"2020-025BF","ARG_OF_PERICENTER":"57.6248","TLE_LINE1":"1 45584U 20025BF  21316.72760854  .00000603  00000-0  59399-4 0  9995","OBJECT_TYPE":"PAYLOAD","ELEMENT_SET_NO":"999","SEMIMAJOR_AXIS":"6925.335","INCLINATION":"53.0541","RCS_SIZE":"LARGE","MEAN_MOTION_DDOT":"0.0000000000000","PERIAPSIS":"545.955","EPHEMERIS_TYPE":"0","EPOCH":"2021-11-12T17:27:45.377856","ECCENTRICITY":"0.00017970","OBJECT_NAME":"STARLINK-1343","BSTAR":"0.00005939900000","GP_ID":"189644124","LAUNCH_DATE":"2020-04-22","PERIOD":"95.592","SITE":"AFETR"},{"EPHEMERIS_TYPE":"0","EPOCH":"2021-11-12T22:28:21.557568","ECCENTRICITY":"0.00012740","RCS_SIZE":"LARGE","MEAN_MOTION_DDOT":"0.0000000000000","PERIAPSIS":"531.601","SEMIMAJOR_AXIS":"6910.617","INCLINATION":"53.0542","ELEMENT_SET_NO":"999","OBJECT_TYPE":"PAYLOAD","GP_ID":"189644369","PERIOD":"95.287","LAUNCH_DATE":"2020-04-22","SITE":"AFETR","BSTAR":"0.03408300000000","OBJECT_NAME":"STARLINK-1345","TIME_SYSTEM":"UTC","CENTER_NAME":"EARTH","TLE_LINE2":"2 45585  53.0542 319.3836 0001274 105.8638 254.2493 15.11219534 87709","MEAN_MOTION":"15.11219534","MEAN_MOTION_DOT":"0.00616431","COUNTRY_CODE":"US","REV_AT_EPOCH":"8770","MEAN_ELEMENT_THEORY":"SGP4","APOAPSIS":"533.362","REF_FRAME":"TEME","RA_OF_ASC_NODE":"319.3836","OBJECT_ID":"2020-025BG","ARG_OF_PERICENTER":"105.8638","TLE_LINE1":"1 45585U 20025BG  21316.93636062  .00616431  00000-0  34083-1 0  9994","NORAD_CAT_ID":"45585","MEAN_ANOMALY":"254.2493","FILE":"3213639","DECAY_DATE":null,"CLASSIFICATION_TYPE":"U"},{"RCS_SIZE":"LARGE","MEAN_MOTION_DDOT":"0.0000000000000","PERIAPSIS":"546.287","EPHEMERIS_TYPE":"0","EPOCH":"2021-11-12T17:59:36.900960","ECCENTRICITY":"0.00013590","OBJECT_TYPE":"PAYLOAD","ELEMENT_SET_NO":"999","INCLINATION":"53.0552","SEMIMAJOR_AXIS":"6925.363","BSTAR":"-0.00002313500000","GP_ID":"189643637","LAUNCH_DATE":"2020-04-22","PERIOD":"95.592","SITE":"AFETR","OBJECT_NAME":"STARLINK-1347","MEAN_MOTION_DOT":"-0.00000626","COUNTRY_CODE":"US","REV_AT_EPOCH":"8766","TIME_SYSTEM":"UTC","CENTER_NAME":"EARTH","MEAN_MOTION":"15.06395131","TLE_LINE2":"2 45586  53.0552 320.2563 0001359  82.3710 277.7434 15.06395131 87665","APOAPSIS":"548.170","REF_FRAME":"TEME","RA_OF_ASC_NODE":"320.2563","MEAN_ELEMENT_THEORY":"SGP4","MEAN_ANOMALY":"277.7434","NORAD_CAT_ID":"45586","FILE":"3213639","OBJECT_ID":"2020-025BH","ARG_OF_PERICENTER":"82.3710","TLE_LINE1":"1 45586U 20025BH  21316.74973265 -.00000626  00000-0 -23135-4 0  9997","DECAY_DATE":null,"CLASSIFICATION_TYPE":"U"},{"EPOCH":"2021-11-12T17:17:08.979648","EPHEMERIS_TYPE":"0","ECCENTRICITY":"0.00014470","MEAN_MOTION_DDOT":"0.0000000000000","RCS_SIZE":"LARGE","PERIAPSIS":"546.239","SEMIMAJOR_AXIS":"6925.377","INCLINATION":"53.0533","OBJECT_TYPE":"PAYLOAD","ELEMENT_SET_NO":"999","GP_ID":"189644386","LAUNCH_DATE":"2020-04-22","PERIOD":"95.593","SITE":"AFETR","BSTAR":"-0.00002091100000","OBJECT_NAME":"STARLINK-1349","TIME_SYSTEM":"UTC","MEAN_MOTION":"15.06390878","TLE_LINE2":"2 45587  53.0533 320.4107 0001447  71.3951 288.7195 15.06390878 87674","CENTER_NAME":"EARTH","COUNTRY_CODE":"US","MEAN_MOTION_DOT":"-0.00000593","REV_AT_EPOCH":"8767","MEAN_ELEMENT_THEORY":"SGP4","APOAPSIS":"548.244","RA_OF_ASC_NODE":"320.4107","REF_FRAME":"TEME","TLE_LINE1":"1 45587U 20025BJ  21316.72024282 -.00000593  00000-0 -20911-4 0  9994","ARG_OF_PERICENTER":"71.3951","OBJECT_ID":"2020-025BJ","MEAN_ANOMALY":"288.7195","NORAD_CAT_ID":"45587","FILE":"3213639","DECAY_DATE":null,"CLASSIFICATION_TYPE":"U"},{"TLE_LINE2":"2 45588  53.0551 320.8043 0001439  73.5866 286.5281 15.06404776 87651","MEAN_MOTION":"15.06404776","CENTER_NAME":"EARTH","TIME_SYSTEM":"UTC","REV_AT_EPOCH":"8765","COUNTRY_CODE":"US","MEAN_MOTION_DOT":"-0.00001533","MEAN_ELEMENT_THEORY":"SGP4","REF_FRAME":"TEME","RA_OF_ASC_NODE":"320.8043","APOAPSIS":"548.195","TLE_LINE1":"1 45588U 20025BK  21316.63178919 -.00001533  00000-0 -84031-4 0  9990","ARG_OF_PERICENTER":"73.5866","OBJECT_ID":"2020-025BK","FILE":"3213639","MEAN_ANOMALY":"286.5281","NORAD_CAT_ID":"45588","CLASSIFICATION_TYPE":"U","DECAY_DATE":null,"ECCENTRICITY":"0.00014390","EPOCH":"2021-11-12T15:09:46.586016","EPHEMERIS_TYPE":"0","PERIAPSIS":"546.202","MEAN_MOTION_DDOT":"0.0000000000000","RCS_SIZE":"LARGE","INCLINATION":"53.0551","SEMIMAJOR_AXIS":"6925.334","OBJECT_TYPE":"PAYLOAD","ELEMENT_SET_NO":"999","SITE":"AFETR","GP_ID":"189644625","PERIOD":"95.592","LAUNCH_DATE":"2020-04-22","BSTAR":"-0.00008403100000","OBJECT_NAME":"STARLINK-1360"}];
